[{"OBJECT_NAME":"GPS BIIR-08","OBJECT_ID":"2003-005A","EPOCH":"2026-03-28T01:59:04.025472","MEAN_MOTION":2.00564876,"ECCENTRICITY":0.01485309,"INCLINATION":54.901,"RA_OF_ASC_NODE":218.1895,"ARG_OF_PERICENTER":52.8576,"MEAN_ANOMALY":125.4188,"EPHEMERIS_TYPE":0,"CLASSIFICATION_TYPE":"U","NORAD_CAT_ID":27663,"ELEMENT_SET_NO":999,"REV_AT_EPOCH":16968,"BSTAR":0,"MEAN_MOTION_DOT":-2.9e-7,"MEAN_MOTION_DDOT":0},{"OBJECT_NAME":"GPS BIIR-11","OBJECT_ID":"2004-009A","EPOCH":"2026-03-28T08:46:59.974752","MEAN_MOTION":2.00557238,"ECCENTRICITY":0.01121577,"INCLINATION":54.8974,"RA_OF_ASC_NODE":278.9506,"ARG_OF_PERICENTER":169.767,"MEAN_ANOMALY":8.2543,"EPHEMERIS_TYPE":0,"CLASSIFICATION_TYPE":"U","NORAD_CAT_ID":28190,"ELEMENT_SET_NO":999,"REV_AT_EPOCH":16132,"BSTAR":0,"MEAN_MOTION_DOT":-1.0e-8,"MEAN_MOTION_DDOT":0},{"OBJECT_NAME":"GPS BIIR-13","OBJECT_ID":"2004-045A","EPOCH":"2026-03-26T07:19:28.719264","MEAN_MOTION":2.00574367,"ECCENTRICITY":0.0170517,"INCLINATION":55.1822,"RA_OF_ASC_NODE":328.236,"ARG_OF_PERICENTER":313.6726,"MEAN_ANOMALY":241.0281,"EPHEMERIS_TYPE":0,"CLASSIFICATION_TYPE":"U","NORAD_CAT_ID":28474,"ELEMENT_SET_NO":999,"REV_AT_EPOCH":15676,"BSTAR":0,"MEAN_MOTION_DOT":-7.3e-7,"MEAN_MOTION_DDOT":0},{"OBJECT_NAME":"GPS BIIR-14M","OBJECT_ID":"2005-038A","EPOCH":"2026-03-28T08:49:44.273856","MEAN_MOTION":2.00571249,"ECCENTRICITY":0.012819,"INCLINATION":54.9447,"RA_OF_ASC_NODE":276.4371,"ARG_OF_PERICENTER":295.6323,"MEAN_ANOMALY":268.7932,"EPHEMERIS_TYPE":0,"CLASSIFICATION_TYPE":"U","NORAD_CAT_ID":28874,"ELEMENT_SET_NO":999,"REV_AT_EPOCH":15021,"BSTAR":0,"MEAN_MOTION_DOT":0,"MEAN_MOTION_DDOT":0},{"OBJECT_NAME":"METEOSAT-9 (MSG-2)","OBJECT_ID":"2005-049B","EPOCH":"2026-03-28T13:17:21.414048","MEAN_MOTION":1.00272852,"ECCENTRICITY":1.892e-5,"INCLINATION":9.1814,"RA_OF_ASC_NODE":54.9434,"ARG_OF_PERICENTER":125.5968,"MEAN_ANOMALY":250.3933,"EPHEMERIS_TYPE":0,"CLASSIFICATION_TYPE":"U","NORAD_CAT_ID":28912,"ELEMENT_SET_NO":999,"REV_AT_EPOCH":619,"BSTAR":0,"MEAN_MOTION_DOT":1.11e-6,"MEAN_MOTION_DDOT":0},{"OBJECT_NAME":"GPS BIIR-16M","OBJECT_ID":"2006-052A","EPOCH":"2026-03-28T03:31:31.011744","MEAN_MOTION":2.0055318,"ECCENTRICITY":0.0087307,"INCLINATION":54.9512,"RA_OF_ASC_NODE":217.2168,"ARG_OF_PERICENTER":89.8109,"MEAN_ANOMALY":271.1536,"EPHEMERIS_TYPE":0,"CLASSIFICATION_TYPE":"U","NORAD_CAT_ID":29601,"ELEMENT_SET_NO":999,"REV_AT_EPOCH":14178,"BSTAR":0,"MEAN_MOTION_DOT":-3.0e-7,"MEAN_MOTION_DDOT":0},{"OBJECT_NAME":"GPS BIIR-17M","OBJECT_ID":"2007-047A","EPOCH":"2026-03-27T22:53:56.037120","MEAN_MOTION":2.00559397,"ECCENTRICITY":0.01639682,"INCLINATION":54.0351,"RA_OF_ASC_NODE":83.4118,"ARG_OF_PERICENTER":86.1575,"MEAN_ANOMALY":275.7399,"EPHEMERIS_TYPE":0,"CLASSIFICATION_TYPE":"U","NORAD_CAT_ID":32260,"ELEMENT_SET_NO":999,"REV_AT_EPOCH":13518,"BSTAR":0,"MEAN_MOTION_DOT":2.6e-7,"MEAN_MOTION_DDOT":0},{"OBJECT_NAME":"GPS BIIR-18M","OBJECT_ID":"2007-062A","EPOCH":"2026-03-28T06:21:38.693088","MEAN_MOTION":2.00554962,"ECCENTRICITY":0.0033697,"INCLINATION":55.097,"RA_OF_ASC_NODE":277.4035,"ARG_OF_PERICENTER":161.1024,"MEAN_ANOMALY":190.8547,"EPHEMERIS_TYPE":0,"CLASSIFICATION_TYPE":"U","NORAD_CAT_ID":32384,"ELEMENT_SET_NO":999,"REV_AT_EPOCH":13388,"BSTAR":0,"MEAN_MOTION_DOT":1.0e-8,"MEAN_MOTION_DDOT":0},{"OBJECT_NAME":"GOES 14","OBJECT_ID":"2009-033A","EPOCH":"2026-03-28T10:51:38.638656","MEAN_MOTION":1.00108484,"ECCENTRICITY":0.0001721,"INCLINATION":1.4821,"RA_OF_ASC_NODE":84.0264,"ARG_OF_PERICENTER":276.6809,"MEAN_ANOMALY":175.399,"EPHEMERIS_TYPE":0,"CLASSIFICATION_TYPE":"U","NORAD_CAT_ID":35491,"ELEMENT_SET_NO":999,"REV_AT_EPOCH":578,"BSTAR":0,"MEAN_MOTION_DOT":5.4e-7,"MEAN_MOTION_DDOT":0},{"OBJECT_NAME":"GOES 15","OBJECT_ID":"2010-008A","EPOCH":"2026-03-28T13:22:28.422624","MEAN_MOTION":1.00270346,"ECCENTRICITY":0.00026795,"INCLINATION":1.0676,"RA_OF_ASC_NODE":84.4696,"ARG_OF_PERICENTER":19.1801,"MEAN_ANOMALY":346.2397,"EPHEMERIS_TYPE":0,"CLASSIFICATION_TYPE":"U","NORAD_CAT_ID":36411,"ELEMENT_SET_NO":999,"REV_AT_EPOCH":5883,"BSTAR":0,"MEAN_MOTION_DOT":3.0e-8,"MEAN_MOTION_DDOT":0},{"OBJECT_NAME":"GSAT0101 (GALILEO-PFM)","OBJECT_ID":"2011-060A","EPOCH":"2026-03-27T07:30:55.432512","MEAN_MOTION":1.70475647,"ECCENTRICITY":0.00041176,"INCLINATION":57.0197,"RA_OF_ASC_NODE":343.984,"ARG_OF_PERICENTER":13.547,"MEAN_ANOMALY":346.4977,"EPHEMERIS_TYPE":0,"CLASSIFICATION_TYPE":"U","NORAD_CAT_ID":37846,"ELEMENT_SET_NO":999,"REV_AT_EPOCH":8972,"BSTAR":0,"MEAN_MOTION_DOT":-9.7e-7,"MEAN_MOTION_DDOT":0},{"OBJECT_NAME":"GSAT0102 (GALILEO-FM2)","OBJECT_ID":"2011-060B","EPOCH":"2026-03-25T18:38:46.101408","MEAN_MOTION":1.7047562,"ECCENTRICITY":0.00051012,"INCLINATION":57.0211,"RA_OF_ASC_NODE":344.026,"ARG_OF_PERICENTER":12.2439,"MEAN_ANOMALY":170.5187,"EPHEMERIS_TYPE":0,"CLASSIFICATION_TYPE":"U","NORAD_CAT_ID":37847,"ELEMENT_SET_NO":999,"REV_AT_EPOCH":8970,"BSTAR":0,"MEAN_MOTION_DOT":-9.2e-7,"MEAN_MOTION_DDOT":0},{"OBJECT_NAME":"LUCH 5A","OBJECT_ID":"2011-074B","EPOCH":"2026-03-28T07:01:20.036064","MEAN_MOTION":1.00269714,"ECCENTRICITY":0.00032526,"INCLINATION":8.5497,"RA_OF_ASC_NODE":74.9826,"ARG_OF_PERICENTER":270.7103,"MEAN_ANOMALY":112.3109,"EPHEMERIS_TYPE":0,"CLASSIFICATION_TYPE":"U","NORAD_CAT_ID":37951,"ELEMENT_SET_NO":999,"REV_AT_EPOCH":5224,"BSTAR":0,"MEAN_MOTION_DOT":-6.3e-7,"MEAN_MOTION_DDOT":0},{"OBJECT_NAME":"METEOSAT-10 (MSG-3)","OBJECT_ID":"2012-035B","EPOCH":"2026-03-28T05:49:38.892864","MEAN_MOTION":1.00271199,"ECCENTRICITY":0.0002443,"INCLINATION":4.4812,"RA_OF_ASC_NODE":61.3545,"ARG_OF_PERICENTER":284.0878,"MEAN_ANOMALY":287.6853,"EPHEMERIS_TYPE":0,"CLASSIFICATION_TYPE":"U","NORAD_CAT_ID":38552,"ELEMENT_SET_NO":999,"REV_AT_EPOCH":5004,"BSTAR":0,"MEAN_MOTION_DOT":-2.3e-7,"MEAN_MOTION_DDOT":0},{"OBJECT_NAME":"SARSAT 13 (METOP-B)","OBJECT_ID":"2012-049A","EPOCH":"2026-03-28T14:11:29.716224","MEAN_MOTION":14.21424374,"ECCENTRICITY":0.0002023,"INCLINATION":98.66,"RA_OF_ASC_NODE":140.6651,"ARG_OF_PERICENTER":190.5576,"MEAN_ANOMALY":169.556,"EPHEMERIS_TYPE":0,"CLASSIFICATION_TYPE":"U","NORAD_CAT_ID":38771,"ELEMENT_SET_NO":999,"REV_AT_EPOCH":70181,"BSTAR":7.1679342e-5,"MEAN_MOTION_DOT":1.13e-6,"MEAN_MOTION_DDOT":0},{"OBJECT_NAME":"GPS BIIF-3","OBJECT_ID":"2012-053A","EPOCH":"2026-03-27T01:15:46.012032","MEAN_MOTION":2.00566077,"ECCENTRICITY":0.0177237,"INCLINATION":53.5685,"RA_OF_ASC_NODE":146.9649,"ARG_OF_PERICENTER":64.9128,"MEAN_ANOMALY":296.9786,"EPHEMERIS_TYPE":0,"CLASSIFICATION_TYPE":"U","NORAD_CAT_ID":38833,"ELEMENT_SET_NO":999,"REV_AT_EPOCH":9779,"BSTAR":0,"MEAN_MOTION_DOT":-4.0e-8,"MEAN_MOTION_DDOT":0},{"OBJECT_NAME":"GSAT0103 (GALILEO-FM3)","OBJECT_ID":"2012-055A","EPOCH":"2026-03-27T08:29:07.581408","MEAN_MOTION":1.70473333,"ECCENTRICITY":0.0005825,"INCLINATION":55.7542,"RA_OF_ASC_NODE":103.7894,"ARG_OF_PERICENTER":290.2864,"MEAN_ANOMALY":69.7017,"EPHEMERIS_TYPE":0,"CLASSIFICATION_TYPE":"U","NORAD_CAT_ID":38857,"ELEMENT_SET_NO":999,"REV_AT_EPOCH":8361,"BSTAR":0,"MEAN_MOTION_DOT":3.9e-7,"MEAN_MOTION_DDOT":0}]
